OBJECT_NAME,OBJECT_ID,EPOCH,MEAN_MOTION,ECCENTRICITY,INCLINATION,RA_OF_ASC_NODE,ARG_OF_PERICENTER,MEAN_ANOMALY,EPHEMERIS_TYPE,CLASSIFICATION_TYPE,NORAD_CAT_ID,ELEMENT_SET_NO,REV_AT_EPOCH,BSTAR,MEAN_MOTION_DOT,MEAN_MOTION_DDOT
POLYITAN-1,2014-033AJ,2026-07-18T00:58:49.731168,15.34281566,.00076502,98.0931,228.2449,55.8959,304.3007,0,U,40042,999,65832,.33244666E-3,.10956E-3,0
TIGRISAT,2014-033AK,2026-07-18T09:01:41.702304,14.85254459,.00483621,97.7869,348.6813,333.7651,26.1115,0,U,40043,999,65025,.85548866E-4,.693E-5,0
AEROCUBE 6A,2014-033AM,2026-07-18T09:54:51.969600,14.98364278,.00361495,97.7261,6.0382,269.8271,89.8809,0,U,40045,999,65129,.27586452E-3,.327E-4,0
AEROCUBE 6B,2014-033AN,2026-07-17T23:38:03.776352,14.99812735,.0038128,97.7206,5.4660,260.2360,99.4557,0,U,40046,999,65137,.21134953E-3,.2592E-4,0
CANX-4,2014-034C,2026-07-18T05:23:23.696448,14.81314034,.00113675,98.3078,75.6714,271.9633,88.0277,0,U,40055,999,64912,.56502591E-4,.384E-5,0
CANX-5,2014-034D,2026-07-18T15:04:13.642752,14.81331659,.0011373,98.3080,76.1348,270.7559,89.2349,0,U,40056,999,63999,.53855E-4,.363E-5,0
UKUBE-1,2014-037F,2026-07-18T07:14:20.651424,15.13977056,.00031905,98.4246,205.8544,82.4039,277.7553,0,U,40074,999,65326,.25747607E-3,.4593E-4,0
BRITE-PL2 (HEWELIUSZ),2014-049B,2026-07-18T18:30:26.392320,14.94691557,.0013984,97.9121,312.0206,10.5778,349.5733,0,U,40119,999,64616,.61509E-4,.608E-5,0
AEROCUBE 5C,2015-058B,2026-07-18T21:14:57.641568,14.91590552,.0132594,64.7650,163.9663,51.0528,310.2313,0,U,40965,999,37038,.1668E-3,.1805E-4,0
AEROCUBE 7,2015-058C,2026-07-18T14:09:29.776608,14.95932772,.0122297,64.7617,146.4389,49.4620,311.7067,0,U,40966,999,37065,.21398E-3,.2608E-4,0
FOX-1A (AO-85),2015-058D,2026-07-18T16:12:01.429056,14.91100292,.0132657,64.7726,181.1175,44.4905,316.6768,0,U,40967,999,11826,.14854E-3,.1565E-4,0
SINOD-D 1,2015-058E,2026-07-18T15:08:39.575904,14.96107543,.0121359,64.7740,160.4262,40.8610,320.1523,0,U,40968,999,12136,.21849E-3,.2675E-4,0
SNAP-3 ALICE,2015-058G,2026-07-18T19:44:19.329216,15.67917417,.002539,64.7500,353.9098,346.0004,14.0439,0,U,40970,999,12183,.79101E-3,.90133E-3,0
LMRST-SAT,2015-058H,2026-07-18T08:52:54.320160,14.90714583,.01341599,64.7733,178.4631,46.6043,314.6146,0,U,40971,999,11820,.15279271E-3,.1603E-4,0
SNAP-3 EDDIE,2015-058J,2026-07-18T18:52:55.733088,15.69367196,.0026497,64.7412,344.5144,348.5687,11.4857,0,U,40972,999,12397,.85022E-3,.103222E-2,0
PROPCUBE 3,2015-058K,2026-07-18T20:44:10.660992,14.94434240,.0126062,64.7678,153.5509,47.6136,313.5564,0,U,40973,999,11953,.20489E-3,.2408E-4,0
BISONSAT,2015-058L,2026-07-18T19:35:53.523744,15.16988721,.0082406,64.7579,71.3135,34.3394,326.3018,0,U,40974,999,12041,.34055E-3,.7167E-4,0
SNAP-3 JIMI,2015-058M,2026-07-18T19:20:25.763136,15.02639001,.0108131,64.7647,119.7061,42.9403,318.0091,0,U,40975,999,11897,.25507E-3,.368E-4,0
PROPCUBE 1 (FLORA),2015-058N,2026-07-18T06:52:35.962176,14.89337354,.013271,64.7717,198.8406,48.9109,312.3373,0,U,40976,999,12089,.13603607E-3,.1347E-4,0
SINOD-D 3,2015-058P,2026-07-18T15:11:35.601216,14.94190037,.0121355,64.7709,177.6085,45.8119,315.2888,0,U,40977,999,11945,.19245E-3,.2208E-4,0
RAVAN,2016-067B,2026-07-18T16:17:14.826048,15.57711993,.0002704,97.9829,92.9607,200.6986,159.4159,0,U,41849,999,53259,.45991E-3,.34061E-3,0
CELTEE 1,2016-067C,2026-07-18T14:41:07.237248,15.19959377,.0002402,98.0628,68.3217,105.5139,254.6359,0,U,41850,999,53065,.11748E-3,.2449E-4,0
OPTICUBE 04,2016-067D,2026-07-18T02:20:25.600128,15.09778428,.00159555,98.0673,52.9918,18.5232,341.6573,0,U,41851,999,52983,.61748732E-4,.928E-5,0
AEROCUBE 8D,2016-067E,2026-07-18T14:14:16.119168,15.24796864,.0004388,98.0633,72.1560,48.3639,311.7971,0,U,41852,999,53085,.15676E-3,.3806E-4,0
AEROCUBE 8C,2016-067F,2026-07-18T21:00:41.352768,15.25053308,.0003888,98.0510,69.6471,326.6849,33.4141,0,U,41853,999,53089,.15503E-3,.3792E-4,0
CORVUS BC2,2017-042X,2026-07-18T17:55:46.455744,15.06465351,.0013081,97.4094,359.8787,10.9554,349.1956,0,U,42846,999,49181,.82279E-4,.1156E-4,0
CORVUS BC1,2017-042Y,2026-07-18T08:09:11.715552,15.06629317,.00113246,97.4125,0.3212,348.7981,11.2993,0,U,42847,999,49178,.11517625E-3,.1649E-4,0
MAKERSAT 0,2017-073D,2026-07-18T14:02:09.304224,15.33085965,.0105621,97.4572,82.3624,160.2361,200.3022,0,U,43016,999,47127,.27996E-3,.10616E-3,0
SIRION PATHFINDER-2,2018-099B,2026-07-18T16:38:43.265184,15.14792549,.0008842,97.4232,248.0043,179.1290,180.9959,0,U,43759,999,41739,.12403E-3,.2239E-4,0
CORVUS BC4,2018-099K,2026-07-18T16:14:49.478784,15.12715710,.0006672,97.4047,241.7370,245.7505,114.3030,0,U,43767,999,41716,.11926E-3,.2026E-4,0
